NORAD_CAT_ID,OBJECT_NAME,OBJECT_TYPE,EPOCH,MEAN_MOTION,ECCENTRICITY,INCLINATION,RA_OF_ASC_NODE,ARG_OF_PERICENTER,MEAN_ANOMALY,BSTAR,MEAN_MOTION_DOT,MEAN_MOTION_DDOT,TLE_LINE0,TLE_LINE1,TLE_LINE2,SEMIMAJOR_AXIS,PERIOD,APOGEE,PERIGEE,DECAYED
53897.0,STARLINK-5035,PAYLOAD,2022-11-02 18:00:02,15.73131269,0.0001718,53.2162,61.0643,42.4882,332.2862,0.00086368,0.00122008,0.0,0 STARLINK-5035,1 53897U 22119M   22306.75002315  .00122008  00000-0  86368-3 0  9990,2 53897  53.2162  61.0643 0001718  42.4882 332.2862 15.73131269  6536,6728.090999999999,91.537,351.112,348.8,0.0
53897.0,STARLINK-5035,PAYLOAD,2022-11-02 22:00:00,15.73189435,0.0001663,53.2158,60.2457,41.0096,198.1047,0.00037991,0.00053011,0.0,0 STARLINK-5035,1 53897U 22119M   22306.91667824  .00053011  00000-0  37991-3 0  9995,2 53897  53.2158  60.2457 0001663  41.0096 198.1047 15.73189435  1308,6727.925,91.534,350.909,348.671,0.0
53897.0,STARLINK-5035,PAYLOAD,2022-11-03 04:00:00,15.73219218,0.0001599,53.2162,59.007,45.9661,169.8518,0.00039809,0.00055667,0.0,0 STARLINK-5035,1 53897U 22119M   22307.16667824  .00055667  00000-0  39809-3 0  9992,2 53897  53.2162  59.0070 0001599  45.9661 169.8518 15.73219218  6608,6727.84,91.532,350.781,348.63,0.0
53897.0,STARLINK-5035,PAYLOAD,2022-11-03 14:00:01,15.73305784,0.0001893,53.2169,56.941,46.3214,10.7357,-0.00059749,-0.00084027,0.0,0 STARLINK-5035,1 53897U 22119M   22307.58334491 -.00084027  00000-0 -59749-3 0  9998,2 53897  53.2169  56.9410 0001893  46.3214  10.7357 15.73305784  1306,6727.594,91.527,350.732,348.185,0.0
53897.0,STARLINK-5035,PAYLOAD,2022-11-03 22:00:00,15.73160594,0.0001575,53.2169,55.2804,40.6177,105.5073,-0.0044236999999999,-0.00579544,0.0,0 STARLINK-5035,1 53897U 22119M   22307.91667824 -.00579544  00000-0 -44237-2 0  9992,2 53897  53.2169  55.2804 0001575  40.6177 105.5073 15.73160594  6724,6728.0080000000025,91.535,350.932,348.81300000000016,0.0
53897.0,STARLINK-5035,PAYLOAD,2022-11-04 06:00:00,15.72946932,0.0001176,53.2172,53.6225,54.7158,180.0131,-0.0091084,-0.01128901,0.0,0 STARLINK-5035,1 53897U 22119M   22308.25001157 -.01128901  00000-0 -91084-2 0  9991,2 53897  53.2172  53.6225 0001176  54.7158 180.0131 15.72946932  6774,6728.6169999999975,91.548,351.273,349.69,0.0
53897.0,STARLINK-5035,PAYLOAD,2022-11-04 14:00:01,15.72129504,0.000128,53.2172,51.9763,47.2951,275.5542,-0.009402,-0.01125503,0.0,0 STARLINK-5035,1 53897U 22119M   22308.58334491 -.01125503  00000-0 -94020-2 0  9995,2 53897  53.2172  51.9763 0001280  47.2951 275.5542 15.72129504  1304,6730.949000000001,91.596,353.675,351.952,0.0
53897.0,STARLINK-5035,PAYLOAD,2022-11-04 22:00:01,15.71304701,0.0001523,53.2168,50.3325,37.3779,12.681,-0.0095758,-0.01108758,0.0,0 STARLINK-5035,1 53897U 22119M   22308.91668981 -.01108758  00000-0 -95758-2 0  9998,2 53897  53.2168  50.3325 0001523  37.3779  12.6810 15.71304701  1305,6733.304,91.644,356.195,354.144,0.0
53897.0,STARLINK-5035,PAYLOAD,2022-11-05 12:00:00,15.69669559,0.0001364,53.2176,47.4564,45.1657,65.0846,-0.0075426,-0.00826887,0.0,0 STARLINK-5035,1 53897U 22119M   22309.50001157 -.00826887  00000-0 -75426-2 0  9999,2 53897  53.2176  47.4564 0001364  45.1657  65.0846 15.69669559  6972,6737.979,91.739,360.764,358.925,0.0
53897.0,STARLINK-5035,PAYLOAD,2022-11-05 14:00:01,15.69632292,0.0001337,53.2175,47.0451,53.2587,168.1701,-0.0096398,-0.01046931,0.0,0 STARLINK-5035,1 53897U 22119M   22309.58335648 -.01046931  00000-0 -96398-2 0  9998,2 53897  53.2175  47.0451 0001337  53.2587 168.1701 15.69632292  1305,6738.0859999999975,91.741,360.852,359.05,0.0
53897.0,STARLINK-5035,PAYLOAD,2022-11-05 22:00:01,15.68724025,0.0001629,53.2169,45.4048,24.0301,281.6535,-0.0087006,-0.00921984,0.0,0 STARLINK-5035,1 53897U 22119M   22309.91668981 -.00921984  00000-0 -87006-2 0  9999,2 53897  53.2169  45.4048 0001629  24.0301 281.6535 15.68724025  7033,6740.687,91.794,363.65,361.454,0.0
53897.0,STARLINK-5035,PAYLOAD,2022-11-06 06:00:00,15.68062451,0.0001537,53.2176,43.765,35.485,353.2896,-0.011135,-0.01142198,0.0,0 STARLINK-5035,1 53897U 22119M   22310.25001157 -.01142198  00000-0 -11135-1 0  9996,2 53897  53.2176  43.7650 0001537  35.4850 353.2896 15.68062451  7094,6742.583000000001,91.833,365.484,363.411,0.0
53897.0,STARLINK-5035,PAYLOAD,2022-11-06 14:00:01,15.67118909,0.0001544,53.2172,42.1325,49.6066,61.4806,-0.0096107,-0.00950418,0.0,0 STARLINK-5035,1 53897U 22119M   22310.58334491 -.00950418  00000-0 -96107-2 0  9996,2 53897  53.2172  42.1325 0001544  49.6066  61.4806 15.67118909  1302,6745.2890000000025,91.888,368.195,366.112,0.0
53897.0,STARLINK-5035,PAYLOAD,2022-11-06 22:00:00,15.66301997,0.0001515,53.2166,40.4972,43.1592,149.2065,-0.0099291,-0.00949807,0.0,0 STARLINK-5035,1 53897U 22119M   22310.91667824 -.00949807  00000-0 -99291-2 0  9999,2 53897  53.2166  40.4972 0001515  43.1592 149.2065 15.66301997  7190,6747.634,91.936,370.521,368.477,0.0
53897.0,STARLINK-5035,PAYLOAD,2022-11-07 06:00:00,15.65545853,0.0001445,53.2167,38.8634,40.4329,232.1996,-0.011112,-0.01022894,0.0,0 STARLINK-5035,1 53897U 22119M   22311.25001157 -.01022894  00000-0 -11112-1 0  9992,2 53897  53.2167  38.8634 0001445  40.4329 232.1996 15.65545853  7248,6749.806,91.981,372.647,370.696,0.0
53897.0,STARLINK-5035,PAYLOAD,2022-11-07 14:00:01,15.64775728,0.0001351,53.2172,37.2352,41.8734,310.0551,-0.012197,-0.01098852,0.0,0 STARLINK-5035,1 53897U 22119M   22311.58334491 -.01098852  00000-0 -12197-1 0  9999,2 53897  53.2172  37.2352 0001351  41.8734 310.0551 15.64775728  7298,6752.021,92.026,374.798,372.974,0.0
53897.0,STARLINK-5035,PAYLOAD,2022-11-07 22:00:00,15.639903699999998,0.0001371,53.2175,35.6052,42.9778,27.2789,-0.013071,-0.01137264,0.0,0 STARLINK-5035,1 53897U 22119M   22311.91667824 -.01137264  00000-0 -13071-1 0  9998,2 53897  53.2175  35.6052 0001371  42.9778  27.2789 15.63990370  1309,6754.281,92.072,377.072,375.22,0.0
53897.0,STARLINK-5035,PAYLOAD,2022-11-08 06:00:00,15.63056934,0.0001107,53.217,33.9793,29.1338,118.5439,-0.011451,-0.00960634,0.0,0 STARLINK-5035,1 53897U 22119M   22312.25001157 -.00960634  00000-0 -11451-1 0  9991,2 53897  53.2170  33.9793 0001107  29.1338 118.5439 15.63056934  7405,6756.97,92.127,379.583,378.087,0.0
53897.0,STARLINK-5035,PAYLOAD,2022-11-08 12:00:00,15.62466491,0.0001645,53.2172,32.7626,46.1497,68.9005,-0.012136,-0.00991556,0.0,0 STARLINK-5035,1 53897U 22119M   22312.50001157 -.00991556  00000-0 -12136-1 0  9997,2 53897  53.2172  32.7626 0001645  46.1497  68.9005 15.62466491  7444,6758.672,92.162,381.649,379.425,0.0
53897.0,STARLINK-5035,PAYLOAD,2022-11-08 14:00:01,15.62340124,0.000149,53.2174,32.357,52.6198,171.3925,-0.013504,-0.01104079,0.0,0 STARLINK-5035,1 53897U 22119M   22312.58334491 -.01104079  00000-0 -13504-1 0  9992,2 53897  53.2174  32.3570 0001490  52.6198 171.3925 15.62340124  1301,6759.036,92.169,381.908,379.894,0.0
53897.0,STARLINK-5035,PAYLOAD,2022-11-08 22:00:00,15.6155096,0.0001517,53.217,30.7333,38.6261,260.7833,-0.014425,-0.01139788,0.0,0 STARLINK-5035,1 53897U 22119M   22312.91667824 -.01139788  00000-0 -14425-1 0  9996,2 53897  53.2170  30.7333 0001517  38.6261 260.7833 15.61550960  7500,6761.313,92.216,384.204,382.153,0.0
53897.0,STARLINK-5035,PAYLOAD,2022-11-09 14:00:01,15.59855154,0.0001581,53.217,27.4966,45.225,42.0965,-0.014021,-0.01046332,0.0,0 STARLINK-5035,1 53897U 22119M   22313.58334491 -.01046332  00000-0 -14021-1 0  9995,2 53897  53.2170  27.4966 0001581  45.2250  42.0965 15.59855154  1307,6766.2130000000025,92.316,389.148,387.008,0.0
53897.0,STARLINK-5035,PAYLOAD,2022-11-09 22:00:01,15.59058702,0.0001385,53.2172,25.8779,62.142,97.7084,-0.014756,-0.01066069,0.0,0 STARLINK-5035,1 53897U 22119M   22313.91668981 -.01066069  00000-0 -14756-1 0  9990,2 53897  53.2172  25.8779 0001385  62.1420  97.7084 15.59058702  7660,6768.517,92.363,391.32,389.445,0.0
53897.0,STARLINK-5035,PAYLOAD,2022-11-10 06:00:00,15.58050242,0.0001218,53.2169,24.2626,87.1863,144.1928,-0.011236,-0.00790889,0.0,0 STARLINK-5035,1 53897U 22119M   22314.25001157 -.00790889  00000-0 -11236-1 0  9997,2 53897  53.2169  24.2626 0001218  87.1863 144.1928 15.58050242  7713,6771.437,92.423,394.127,392.478,0.0
53897.0,STARLINK-5035,PAYLOAD,2022-11-10 14:00:01,15.57295494,0.0001055,53.2171,22.6537,75.4823,226.3834,-0.012845,-0.0087114,0.0,0 STARLINK-5035,1 53897U 22119M   22314.58334491 -.00871140  00000-0 -12845-1 0  9990,2 53897  53.2171  22.6537 0001055  75.4823 226.3834 15.57295494  1301,6773.625,92.468,396.205,394.775,0.0
53897.0,STARLINK-5035,PAYLOAD,2022-11-10 20:00:01,15.56856075,0.0001207,53.2167,21.4447,80.2794,183.7481,-0.0168509999999999,-0.01114835,0.0,0 STARLINK-5035,1 53897U 22119M   22314.83334491 -.01114835  00000-0 -16851-1 0  9991,2 53897  53.2167  21.4447 0001207  80.2794 183.7481 15.56856075  7805,6774.9,92.494,397.582,395.947,0.0
53897.0,STARLINK-5035,PAYLOAD,2022-11-10 22:00:00,15.56668253,0.0001058,53.2173,21.0412,73.9275,297.3871,-0.01734,-0.01136751,0.0,0 STARLINK-5035,1 53897U 22119M   22314.91667824 -.01136751  00000-0 -17340-1 0  9994,2 53897  53.2173  21.0412 0001058  73.9275 297.3871 15.56668253  1300,6775.445,92.505,398.026,396.593,0.0
53897.0,STARLINK-5035,PAYLOAD,2022-11-11 14:00:01,15.55039956,0.0001284,53.2171,17.8286,68.1213,79.3374,-0.018372,-0.01133831,0.0,0 STARLINK-5035,1 53897U 22119M   22315.58334491 -.01133831  00000-0 -18372-1 0  9991,2 53897  53.2171  17.8286 0001284  68.1213  79.3374 15.55039956  7920,6780.1730000000025,92.602,402.909,401.168,0.0
53897.0,STARLINK-5035,PAYLOAD,2022-11-11 22:00:00,15.54205382,0.0001296,53.217,16.2225,61.8841,152.1927,-0.018461,-0.01107471,0.0,0 STARLINK-5035,1 53897U 22119M   22315.91667824 -.01107471  00000-0 -18461-1 0  9997,2 53897  53.2170  16.2225 0001296  61.8841 152.1927 15.54205382  1302,6782.6,92.652,405.344,403.586,0.0
